LANDSAT 9
1 49260U 21088A   25118.70750832  .00000842  00000+0  19685-3 0  9994
2 49260  98.1909 189.9177 0001145  89.6097 270.5232 14.57112529190649